[{"OBJECT_NAME":"LYNK TOWER 4","OBJECT_ID":"2023-001AB","EPOCH":"2026-03-09T16:15:30.644928","MEAN_MOTION":15.31819885,"ECCENTRICITY":0.00103213,"INCLINATION":97.3324,"RA_OF_ASC_NODE":128.594,"ARG_OF_PERICENTER":112.3386,"MEAN_ANOMALY":247.895,"EPHEMERIS_TYPE":0,"CLASSIFICATION_TYPE":"U","NORAD_CAT_ID":55034,"ELEMENT_SET_NO":999,"REV_AT_EPOCH":17658,"BSTAR":0.00030013829,"MEAN_MOTION_DOT":9.16e-5,"MEAN_MOTION_DDOT":0},{"OBJECT_NAME":"STARLINK-32209","OBJECT_ID":"2024-150H","EPOCH":"2026-03-09T21:23:48.509952","MEAN_MOTION":15.30185507,"ECCENTRICITY":7.468e-5,"INCLINATION":53.1608,"RA_OF_ASC_NODE":305.9919,"ARG_OF_PERICENTER":113.6412,"MEAN_ANOMALY":246.4667,"EPHEMERIS_TYPE":0,"CLASSIFICATION_TYPE":"U","NORAD_CAT_ID":60590,"ELEMENT_SET_NO":999,"REV_AT_EPOCH":8807,"BSTAR":3.925511e-5,"MEAN_MOTION_DOT":8.03e-6,"MEAN_MOTION_DDOT":0}]
